[{"OBJECT_NAME":"FALCONSAT-6","OBJECT_ID":"2018-099BK","EPOCH":"2026-03-09T17:24:38.352096","MEAN_MOTION":15.26532865,"ECCENTRICITY":0.00143698,"INCLINATION":97.3865,"RA_OF_ASC_NODE":145.8165,"ARG_OF_PERICENTER":297.0944,"MEAN_ANOMALY":181.0714,"EPHEMERIS_TYPE":0,"CLASSIFICATION_TYPE":"U","NORAD_CAT_ID":43815,"ELEMENT_SET_NO":999,"REV_AT_EPOCH":39855,"BSTAR":0.00019476898,"MEAN_MOTION_DOT":5.029e-5,"MEAN_MOTION_DDOT":0},{"OBJECT_NAME":"STARLINK-34776","OBJECT_ID":"2025-161Y","EPOCH":"2026-03-09T22:11:36.569184","MEAN_MOTION":15.30176973,"ECCENTRICITY":0.00011932,"INCLINATION":53.1572,"RA_OF_ASC_NODE":293.2663,"ARG_OF_PERICENTER":55.4742,"MEAN_ANOMALY":304.6371,"EPHEMERIS_TYPE":0,"CLASSIFICATION_TYPE":"U","NORAD_CAT_ID":65037,"ELEMENT_SET_NO":999,"REV_AT_EPOCH":3426,"BSTAR":0.00051644763,"MEAN_MOTION_DOT":0.00014957,"MEAN_MOTION_DDOT":0}]
